[{"OBJECT_NAME":"STARLINK-6109","OBJECT_ID":"2023-046B","EPOCH":"2026-03-09T22:00:01.999584","MEAN_MOTION":15.06089505,"ECCENTRICITY":0.00015703,"INCLINATION":43.0008,"RA_OF_ASC_NODE":157.9064,"ARG_OF_PERICENTER":268.0495,"MEAN_ANOMALY":100.9448,"EPHEMERIS_TYPE":0,"CLASSIFICATION_TYPE":"U","NORAD_CAT_ID":56094,"ELEMENT_SET_NO":999,"REV_AT_EPOCH":567,"BSTAR":0.00012509635,"MEAN_MOTION_DOT":1.648e-5,"MEAN_MOTION_DDOT":0},{"OBJECT_NAME":"COSMOS 2251 DEB","OBJECT_ID":"1993-036BLZ","EPOCH":"2026-03-06T21:00:05.608224","MEAN_MOTION":14.97960044,"ECCENTRICITY":0.00597249,"INCLINATION":73.9479,"RA_OF_ASC_NODE":151.0759,"ARG_OF_PERICENTER":149.7591,"MEAN_ANOMALY":210.7065,"EPHEMERIS_TYPE":0,"CLASSIFICATION_TYPE":"U","NORAD_CAT_ID":37496,"ELEMENT_SET_NO":999,"REV_AT_EPOCH":67275,"BSTAR":0.0022465948,"MEAN_MOTION_DOT":0.00027564,"MEAN_MOTION_DDOT":0}]
